{
  "type": "FeatureCollection",
  "features": [
    {
      "type": "Feature",
      "properties": {
        "norad_id": 37867,
        "name": "COSMOS 2476 (744)",
        "group": "glo-ops",
        "lat": 63.549515446960605,
        "lon": 147.85915811986942,
        "alt_km": 19177.446466596186,
        "timestamp": "2025-12-03T20:47:58.484516+00:00",
        "meta_object_name": "COSMOS 2476 (744)",
        "meta_object_id": "2011-064A",
        "meta_epoch": "2025-12-02T19:57:36.313920",
        "meta_mean_motion": 2.13101261,
        "meta_eccentricity": 0.00239603,
        "meta_inclination": 65.1573,
        "meta_ra_of_asc_node": 79.5068,
        "meta_arg_of_pericenter": 233.4935,
        "meta_mean_anomaly": 133.1658,
        "meta_ephemeris_type": 0,
        "meta_classification_type": "U",
        "meta_norad_cat_id": 37867,
        "meta_element_set_no": 999,
        "meta_rev_at_epoch": 10958,
        "meta_bstar": 0,
        "meta_mean_motion_dot": -2.2e-07,
        "meta_mean_motion_ddot": 0,
        "tle_line1": "1 37867U 11064A   25336.83167030 -.00000022  00000+0  00000+0 0  9993",
        "tle_line2": "2 37867  65.1573  79.5068 0023960 233.4935 133.1658  2.13101261109581"
      },
      "geometry": {
        "type": "Point",
        "coordinates": [
          147.85915811986942,
          63.549515446960605
        ]
      }
    },
    {
      "type": "Feature",
      "properties": {
        "norad_id": 37868,
        "name": "COSMOS 2477 (745)",
        "group": "glo-ops",
        "lat": -63.91448683192842,
        "lon": -29.633461134282012,
        "alt_km": 19089.132611808178,
        "timestamp": "2025-12-03T20:47:58.484528+00:00",
        "meta_object_name": "COSMOS 2477 (745)",
        "meta_object_id": "2011-064B",
        "meta_epoch": "2025-12-01T05:34:43.743072",
        "meta_mean_motion": 2.1310269,
        "meta_eccentricity": 0.00209845,
        "meta_inclination": 65.1625,
        "meta_ra_of_asc_node": 79.6383,
        "meta_arg_of_pericenter": 233.8301,
        "meta_mean_anomaly": 166.8442,
        "meta_ephemeris_type": 0,
        "meta_classification_type": "U",
        "meta_norad_cat_id": 37868,
        "meta_element_set_no": 999,
        "meta_rev_at_epoch": 10954,
        "meta_bstar": 0,
        "meta_mean_motion_dot": -1.2e-07,
        "meta_mean_motion_ddot": 0,
        "tle_line1": "1 37868U 11064B   25335.23245073 -.00000012  00000+0  00000+0 0  9990",
        "tle_line2": "2 37868  65.1625  79.6383 0020984 233.8301 166.8442  2.13102690109542"
      },
      "geometry": {
        "type": "Point",
        "coordinates": [
          -29.633461134282012,
          -63.91448683192842
        ]
      }
    },
    {
      "type": "Feature",
      "properties": {
        "norad_id": 37869,
        "name": "COSMOS 2475 (743)",
        "group": "glo-ops",
        "lat": -33.49061721633338,
        "lon": -82.6213476860004,
        "alt_km": 19077.305451002783,
        "timestamp": "2025-12-03T20:47:58.484540+00:00",
        "meta_object_name": "COSMOS 2475 (743)",
        "meta_object_id": "2011-064C",
        "meta_epoch": "2025-12-01T05:41:50.555616",
        "meta_mean_motion": 2.13101369,
        "meta_eccentricity": 0.00260135,
        "meta_inclination": 65.1695,
        "meta_ra_of_asc_node": 79.658,
        "meta_arg_of_pericenter": 248.1873,
        "meta_mean_anomaly": 112.2788,
        "meta_ephemeris_type": 0,
        "meta_classification_type": "U",
        "meta_norad_cat_id": 37869,
        "meta_element_set_no": 999,
        "meta_rev_at_epoch": 10955,
        "meta_bstar": 0,
        "meta_mean_motion_dot": -1.2e-07,
        "meta_mean_motion_ddot": 0,
        "tle_line1": "1 37869U 11064C   25335.23739069 -.00000012  00000+0  00000+0 0  9994",
        "tle_line2": "2 37869  65.1695  79.6580 0026013 248.1873 112.2788  2.13101369109552"
      },
      "geometry": {
        "type": "Point",
        "coordinates": [
          -82.6213476860004,
          -33.49061721633338
        ]
      }
    },
    {
      "type": "Feature",
      "properties": {
        "norad_id": 39155,
        "name": "COSMOS 2485 (747)",
        "group": "glo-ops",
        "lat": 45.162796834596826,
        "lon": -127.34736468228458,
        "alt_km": 19135.695959496123,
        "timestamp": "2025-12-03T20:47:58.484570+00:00",
        "meta_object_name": "COSMOS 2485 (747)",
        "meta_object_id": "2013-019A",
        "meta_epoch": "2025-12-02T06:58:21.505152",
        "meta_mean_motion": 2.13102877,
        "meta_eccentricity": 0.00245683,
        "meta_inclination": 65.3079,
        "meta_ra_of_asc_node": 80.2187,
        "meta_arg_of_pericenter": 229.0905,
        "meta_mean_anomaly": 130.6936,
        "meta_ephemeris_type": 0,
        "meta_classification_type": "U",
        "meta_norad_cat_id": 39155,
        "meta_element_set_no": 999,
        "meta_rev_at_epoch": 9808,
        "meta_bstar": 0,
        "meta_mean_motion_dot": -1.8e-07,
        "meta_mean_motion_ddot": 0,
        "tle_line1": "1 39155U 13019A   25336.29052668 -.00000018  00000+0  00000+0 0  9992",
        "tle_line2": "2 39155  65.3079  80.2187 0024568 229.0905 130.6936  2.13102877 98087"
      },
      "geometry": {
        "type": "Point",
        "coordinates": [
          -127.34736468228458,
          45.162796834596826
        ]
      }
    },
    {
      "type": "Feature",
      "properties": {
        "norad_id": 39620,
        "name": "COSMOS 2492 (754)",
        "group": "glo-ops",
        "lat": 17.441080059753407,
        "lon": 132.29105787921264,
        "alt_km": 19159.413279391985,
        "timestamp": "2025-12-03T20:47:58.484584+00:00",
        "meta_object_name": "COSMOS 2492 (754)",
        "meta_object_id": "2014-012A",
        "meta_epoch": "2025-12-02T17:14:30.403680",
        "meta_mean_motion": 2.13103072,
        "meta_eccentricity": 0.00141646,
        "meta_inclination": 65.4134,
        "meta_ra_of_asc_node": 320.6107,
        "meta_arg_of_pericenter": 311.0276,
        "meta_mean_anomaly": 48.8557,
        "meta_ephemeris_type": 0,
        "meta_classification_type": "U",
        "meta_norad_cat_id": 39620,
        "meta_element_set_no": 999,
        "meta_rev_at_epoch": 9105,
        "meta_bstar": 0,
        "meta_mean_motion_dot": -3.6e-07,
        "meta_mean_motion_ddot": 0,
        "tle_line1": "1 39620U 14012A   25336.71840745 -.00000036  00000+0  00000+0 0  9991",
        "tle_line2": "2 39620  65.4134 320.6107 0014164 311.0276  48.8557  2.13103072 91051"
      },
      "geometry": {
        "type": "Point",
        "coordinates": [
          132.29105787921264,
          17.441080059753407
        ]
      }
    },
    {
      "type": "Feature",
      "properties": {
        "norad_id": 40001,
        "name": "COSMOS 2500 (755)",
        "group": "glo-ops",
        "lat": 25.836073924695373,
        "lon": -26.82497188987269,
        "alt_km": 19147.517467726953,
        "timestamp": "2025-12-03T20:47:58.484596+00:00",
        "meta_object_name": "COSMOS 2500 (755)",
        "meta_object_id": "2014-032A",
        "meta_epoch": "2025-12-01T22:51:13.641408",
        "meta_mean_motion": 2.13105853,
        "meta_eccentricity": 0.00082978,
        "meta_inclination": 65.3495,
        "meta_ra_of_asc_node": 320.3998,
        "meta_arg_of_pericenter": 219.081,
        "meta_mean_anomaly": 140.8682,
        "meta_ephemeris_type": 0,
        "meta_classification_type": "U",
        "meta_norad_cat_id": 40001,
        "meta_element_set_no": 999,
        "meta_rev_at_epoch": 8925,
        "meta_bstar": 0,
        "meta_mean_motion_dot": -3.1e-07,
        "meta_mean_motion_ddot": 0,
        "tle_line1": "1 40001U 14032A   25335.95224122 -.00000031  00000+0  00000+0 0  9993",
        "tle_line2": "2 40001  65.3495 320.3998 0008297 219.0810 140.8682  2.13105853 89251"
      },
      "geometry": {
        "type": "Point",
        "coordinates": [
          -26.82497188987269,
          25.836073924695373
        ]
      }
    },
    {
      "type": "Feature",
      "properties": {
        "norad_id": 40315,
        "name": "COSMOS 2501 (702K)",
        "group": "glo-ops",
        "lat": -8.408003869225615,
        "lon": 21.34235346970743,
        "alt_km": 19081.894943164854,
        "timestamp": "2025-12-03T20:47:58.484608+00:00",
        "meta_object_name": "COSMOS 2501 (702K)",
        "meta_object_id": "2014-075A",
        "meta_epoch": "2025-11-30T19:17:52.497312",
        "meta_mean_motion": 2.13101305,
        "meta_eccentricity": 0.00201676,
        "meta_inclination": 63.6137,
        "meta_ra_of_asc_node": 197.2386,
        "meta_arg_of_pericenter": 204.7979,
        "meta_mean_anomaly": 155.1955,
        "meta_ephemeris_type": 0,
        "meta_classification_type": "U",
        "meta_norad_cat_id": 40315,
        "meta_element_set_no": 999,
        "meta_rev_at_epoch": 8562,
        "meta_bstar": 0,
        "meta_mean_motion_dot": 1e-06,
        "meta_mean_motion_ddot": 0,
        "tle_line1": "1 40315U 14075A   25334.80407983  .00000100  00000+0  00000+0 0  9995",
        "tle_line2": "2 40315  63.6137 197.2386 0020167 204.7979 155.1955  2.13101305 85629"
      },
      "geometry": {
        "type": "Point",
        "coordinates": [
          21.34235346970743,
          -8.408003869225615
        ]
      }
    }
  ]
}